0 FENGYUN 1C DEB
1 32149U 99025CST 13283.47732803  .00018369  00000-0  28267-2 0  5030
2 32149 099.0926 112.3695 0101654 283.9522 075.3924 14.70076850329452
0 FENGYUN 1C DEB
1 32149U 99025CST 13284.97462367  .00019167  00000-0  29677-2 0  5045
2 32149 099.0894 114.0439 0096419 279.1503 080.0075 14.70144244329676
0 FENGYUN 1C DEB
1 32149U 99025CST 13287.76496558  .00028559  00000-0  43832-2 0  5059
2 32149 099.0914 117.1470 0097519 271.1771 088.6002 14.70345767330083
0 FENGYUN 1C DEB
1 32149U 99025CST 13289.46603684  .00028242  00000-0  43107-2 0  5063
2 32149 099.0893 119.0407 0099586 264.3858 094.7733 14.70448425330338
0 FENGYUN 1C DEB
1 32149U 99025CST 13293.00417284  .00030326  00000-0  46286-2 0  5075
2 32149 099.0942 122.9846 0095743 252.7244 106.7253 14.70679051330853
0 FENGYUN 1C DEB
1 32149U 99025CST 13295.31720785  .00035827  00000-0  54107-2 0  5087
2 32149 099.0920 125.5629 0098718 247.1597 112.7320 14.70892537331197
